{"type":"FeatureCollection","features":[{"type":"Feature","geometry":{"type":"Polygon","coordinates":[[[4.210497,43.683802],[4.210811,43.683827],[4.21088,43.68312],[4.210886,43.683018],[4.210564,43.68301],[4.210497,43.683802]]]},"properties":{"nom":"","nb_places":null,"insee":"30006","commune":"Aimargues","source":"manuel","id_source":"20260929090300","cle":"manuel:20260929090300","id_pk":"MA_20260929090300"}},{"type":"Feature","geometry":{"type":"Polygon","coordinates":[[[4.166712,43.715375],[4.166511,43.714708],[4.166774,43.714653],[4.166997,43.715342],[4.166712,43.715375]]]},"properties":{"nom":"","nb_places":null,"insee":"30123","commune":"Gallargues-le-Montueux","source":"manuel","id_source":"20260929152105","cle":"manuel:20260929152105","id_pk":"MA_20260929152105"}}]}